ONEWEB-0158             
1 48054U 21025N   25108.36205039  .00000175  00000+0  44398-3 0  9998
2 48054  87.8980  44.6299 0002052  83.1572 276.9790 13.13470936197860
ONEWEB-0157             
1 48055U 21025P   25109.22538468 -.00000226  00000+0 -65253-3 0  9992
2 48055  87.8979  44.4702 0001673  93.3195 266.8126 13.13466993197924
ONEWEB-0162             
1 48056U 21025Q   25108.28741711  .00000120  00000+0  29479-3 0  9996
2 48056  87.8979  44.6544 0001912  83.0578 277.0768 13.13469744197741
ONEWEB-0155             
1 48057U 21025R   25109.36081815  .00000133  00000+0  33018-3 0  9997
2 48057  87.8981  44.4494 0001696  76.3138 283.8180 13.13468963198053
ONEWEB-0149             
1 48058U 21025S   25109.23048200  .00000165  00000+0  41560-3 0  9991
2 48058  87.8962  44.4690 0001842  83.3861 276.7478 13.13468404197842
ONEWEB-0148             
1 48059U 21025T   25108.35527081  .00000292  00000+0  76565-3 0  9997
2 48059  87.8980  44.6657 0002253  97.2235 262.9150 13.13472317197846
ONEWEB-0160             
1 48060U 21025U   25109.21016462  .00000023  00000+0  28616-4 0  9998
2 48060  87.8984  44.4923 0002487  62.2885 297.8496 13.13468797197902
ONEWEB-0163             
1 48061U 21025V   25109.19492034  .00000282  00000+0  73707-3 0  9996
2 48061  87.8980  44.4785 0001702  86.3259 273.8065 13.13471493198034
